     2.10           G: GLO NAV DATA                         RINEX VERSION / TYPE
sbf2rin-13.2.0                          30-MAY-19 20:34     PGM / RUN BY / DATE 
    18                                                      LEAP SECONDS        
                                                            END OF HEADER       
04 17  9 21 16 15  0.0 2.315863966942E-04 9.094947017729E-13 5.850000000000E+04
    5.369632812500E+03-1.268066406250E+00-1.862645149231E-09 0.000000000000E+00
    1.238074365234E+04 2.676999092102E+00 9.313225746155E-10 6.000000000000E+00
    2.165832861328E+04-1.217954635620E+00-1.862645149231E-09 0.000000000000E+00
05 17  9 21 16 15  0.0-1.667486503720E-04-5.456968210638E-12 5.763000000000E+04
    1.354733203125E+04-1.303784370422E+00 0.000000000000E+00 0.000000000000E+00
   -4.608271972656E+03 2.580960273743E+00-1.862645149231E-09 1.000000000000E+00
    2.110688525391E+04 1.400546073914E+00-2.793967723846E-09 0.000000000000E+00
06 17  9 21 16 15  0.0 1.181708648801E-04 0.000000000000E+00 5.853000000000E+04
    1.369734619141E+04-5.582828521729E-01 3.725290298462E-09 0.000000000000E+00
   -2.023319384766E+04 8.512287139893E-01-4.656612873077E-09-4.000000000000E+00
    7.365995605469E+03 3.368852615356E+00-9.313225746155E-10 0.000000000000E+00
07 17  9 21 16 15  0.0-1.716241240501E-05-9.094947017729E-13 5.820000000000E+04
    6.216415039062E+03 4.619045257568E-01 3.725290298462E-09 0.000000000000E+00
   -2.277601513672E+04-1.253599166870E+00-3.725290298462E-09 5.000000000000E+00
   -9.666000976562E+03 3.236766815186E+00 9.313225746155E-10 0.000000000000E+00
11 17  9 21 16 15  0.0-1.057330518961E-05-9.094947017729E-13 5.850000000000E+04
   -1.512366162109E+04-4.164276123047E-01 2.793967723846E-09 0.000000000000E+00
   -2.014535595703E+04-3.584671020508E-01 0.000000000000E+00 0.000000000000E+00
    3.863286132812E+03-3.523108482361E+00-0.000000000000E+00 0.000000000000E+00
12 17  9 21 16 15  0.0-2.036616206169E-05-0.000000000000E+00 5.850000000000E+04
   -1.583271191406E+04-1.477710723877E+00 9.313225746155E-10 0.000000000000E+00
   -8.524352539062E+03-1.995477676392E+00 1.862645149231E-09-1.000000000000E+00
    1.812064453125E+04-2.223815917969E+00-1.862645149231E-09 0.000000000000E+00
13 17  9 21 16 15  0.0-2.825632691383E-06-0.000000000000E+00 5.835000000000E+04
   -6.120772949219E+03-1.698822975159E+00-1.862645149231E-09 0.000000000000E+00
    9.878648925781E+03-2.607731819153E+00 1.862645149231E-09-2.000000000000E+00
    2.269731005859E+04 6.751050949097E-01-1.862645149231E-09 0.000000000000E+00
19 17  9 21 15 45  0.0-2.501439303160E-05-1.818989403546E-12 5.580000000000E+04
    2.535922509766E+04 3.455028533936E-01 9.313225746155E-10 0.000000000000E+00
    1.315806152344E+03-1.900806427002E-01-4.656612873077E-09 3.000000000000E+00
    2.371678710938E+03-3.580156326294E+00-0.000000000000E+00 0.000000000000E+00
20 17  9 21 16 15  0.0-3.083152696490E-04-9.094947017729E-13 5.850000000000E+04
    2.010129638672E+04 1.915133476257E+00 9.313225746155E-10 0.000000000000E+00
   -7.103058593750E+03-2.497243881226E-01-3.725290298462E-09 2.000000000000E+00
    1.403856835938E+04-2.864476203918E+00-1.862645149231E-09 0.000000000000E+00
21 17  9 21 16 15  0.0 1.352038234472E-04 1.818989403546E-12 5.763000000000E+04
    3.008455566406E+03 3.137552261353E+00 9.313225746155E-10 0.000000000000E+00
   -1.074549560547E+04-2.012577056885E-01-9.313225746155E-10 4.000000000000E+00
    2.292926562500E+04-5.086774826050E-01-2.793967723846E-09 0.000000000000E+00
22 17  9 21 16 15  0.0 2.177152782679E-05-3.637978807092E-12 5.850000000000E+04
   -1.623354248047E+04 2.497025489807E+00 9.313225746155E-10 0.000000000000E+00
   -7.445518066406E+03-2.449989318848E-03 1.862645149231E-09-3.000000000000E+00
    1.815239453125E+04 2.242772102356E+00-1.862645149231E-09 0.000000000000E+00
21 17  9 21 16 15  0.0 1.352038234472E-04 1.818989403546E-12 5.901000000000E+04
    3.008455566406E+03 3.137552261353E+00 9.313225746155E-10 0.000000000000E+00
   -1.074549560547E+04-2.012577056885E-01-9.313225746155E-10 4.000000000000E+00
    2.292926562500E+04-5.086774826050E-01-2.793967723846E-09 0.000000000000E+00
20 17  9 21 16 15  0.0-3.083152696490E-04-9.094947017729E-13 5.901000000000E+04
    2.010129638672E+04 1.915133476257E+00 9.313225746155E-10 0.000000000000E+00
   -7.103058593750E+03-2.497243881226E-01-3.725290298462E-09 2.000000000000E+00
    1.403856835938E+04-2.864476203918E+00-1.862645149231E-09 0.000000000000E+00
22 17  9 21 16 15  0.0 2.177152782679E-05-3.637978807092E-12 5.901000000000E+04
   -1.623354248047E+04 2.497025489807E+00 9.313225746155E-10 0.000000000000E+00
   -7.445518066406E+03-2.449989318848E-03 1.862645149231E-09-3.000000000000E+00
    1.815239453125E+04 2.242772102356E+00-1.862645149231E-09 0.000000000000E+00
06 17  9 21 16 15  0.0 1.181708648801E-04 0.000000000000E+00 5.904000000000E+04
    1.369734619141E+04-5.582828521729E-01 3.725290298462E-09 0.000000000000E+00
   -2.023319384766E+04 8.512287139893E-01-4.656612873077E-09-4.000000000000E+00
    7.365995605469E+03 3.368852615356E+00-9.313225746155E-10 0.000000000000E+00
05 17  9 21 16 15  0.0-1.667486503720E-04-5.456968210638E-12 5.904000000000E+04
    1.354733203125E+04-1.303784370422E+00 0.000000000000E+00 0.000000000000E+00
   -4.608271972656E+03 2.580960273743E+00-1.862645149231E-09 1.000000000000E+00
    2.110688525391E+04 1.400546073914E+00-2.793967723846E-09 0.000000000000E+00
12 17  9 21 16 15  0.0-2.036616206169E-05-0.000000000000E+00 5.904000000000E+04
   -1.583271191406E+04-1.477710723877E+00 9.313225746155E-10 0.000000000000E+00
   -8.524352539062E+03-1.995477676392E+00 1.862645149231E-09-1.000000000000E+00
    1.812064453125E+04-2.223815917969E+00-1.862645149231E-09 0.000000000000E+00
07 17  9 21 16 15  0.0-1.716241240501E-05-9.094947017729E-13 5.904000000000E+04
    6.216415039062E+03 4.619045257568E-01 3.725290298462E-09 0.000000000000E+00
   -2.277601513672E+04-1.253599166870E+00-3.725290298462E-09 5.000000000000E+00
   -9.666000976562E+03 3.236766815186E+00 9.313225746155E-10 0.000000000000E+00
11 17  9 21 16 15  0.0-1.057330518961E-05-9.094947017729E-13 5.904000000000E+04
   -1.512366162109E+04-4.164276123047E-01 2.793967723846E-09 0.000000000000E+00
   -2.014535595703E+04-3.584671020508E-01 0.000000000000E+00 0.000000000000E+00
    3.863286132812E+03-3.523108482361E+00-0.000000000000E+00 0.000000000000E+00
04 17  9 21 16 15  0.0 2.315863966942E-04 9.094947017729E-13 5.904000000000E+04
    5.369632812500E+03-1.268066406250E+00-1.862645149231E-09 0.000000000000E+00
    1.238074365234E+04 2.676999092102E+00 9.313225746155E-10 6.000000000000E+00
    2.165832861328E+04-1.217954635620E+00-1.862645149231E-09 0.000000000000E+00
13 17  9 21 16 15  0.0-2.825632691383E-06-0.000000000000E+00 5.907000000000E+04
   -6.120772949219E+03-1.698822975159E+00-1.862645149231E-09 0.000000000000E+00
    9.878648925781E+03-2.607731819153E+00 1.862645149231E-09-2.000000000000E+00
    2.269731005859E+04 6.751050949097E-01-1.862645149231E-09 0.000000000000E+00
21 17  9 21 16 45  0.0 1.352066174150E-04 1.818989403546E-12 5.940000000000E+04
    8.426273925781E+03 2.833407402039E+00 9.313225746155E-10 0.000000000000E+00
   -1.149937548828E+04-6.187524795532E-01-2.793967723846E-09 4.000000000000E+00
    2.113829248047E+04-1.468442916870E+00-2.793967723846E-09 0.000000000000E+00
06 17  9 21 16 45  0.0 1.181727275252E-04 0.000000000000E+00 5.940000000000E+04
    1.255508886719E+04-6.688547134399E-01 1.862645149231E-09 0.000000000000E+00
   -1.796262451172E+04 1.663789749146E+00-4.656612873077E-09-4.000000000000E+00
    1.306720751953E+04 2.924704551697E+00-1.862645149231E-09 0.000000000000E+00
05 17  9 21 16 45  0.0-1.667588949203E-04-5.456968210638E-12 5.940000000000E+04
    1.145677880859E+04-9.907131195068E-01-9.313225746155E-10 0.000000000000E+00
    4.149448242188E+02 2.958387374878E+00-9.313225746155E-10 1.000000000000E+00
    2.277872070312E+04 4.449996948242E-01-2.793967723846E-09 0.000000000000E+00
20 17  9 21 16 45  0.0-3.083143383265E-04-9.094947017729E-13 5.940000000000E+04
    2.283476708984E+04 1.100166320801E+00 0.000000000000E+00 0.000000000000E+00
   -7.723473632812E+03-4.003934860229E-01-4.656612873077E-09 2.000000000000E+00
    8.407453125000E+03-3.351758956909E+00-9.313225746155E-10 0.000000000000E+00
22 17  9 21 16 45  0.0 2.176500856876E-05-2.728484105319E-12 5.940000000000E+04
   -1.132712011719E+04 2.906487464905E+00 9.313225746155E-10 0.000000000000E+00
   -7.848986816406E+03-4.616460800171E-01 0.000000000000E+00-3.000000000000E+00
    2.143219531250E+04 1.377964019775E+00-1.862645149231E-09 0.000000000000E+00
12 17  9 21 16 45  0.0-2.036616206169E-05-0.000000000000E+00 5.940000000000E+04
   -1.840472216797E+04-1.334412574768E+00 1.862645149231E-09 0.000000000000E+00
   -1.148268505859E+04-1.281329154968E+00 9.313225746155E-10-1.000000000000E+00
    1.347069482422E+04-2.909261703491E+00-9.313225746155E-10 0.000000000000E+00
07 17  9 21 16 45  0.0-1.716427505016E-05-9.094947017729E-13 5.940000000000E+04
    6.612173828125E+03 8.086204528809E-03 3.725290298462E-09 0.000000000000E+00
   -2.439339746094E+04-5.146694183350E-01-4.656612873077E-09 5.000000000000E+00
   -3.541580566406E+03 3.523941993713E+00 0.000000000000E+00 0.000000000000E+00
11 17  9 21 16 45  0.0-1.057516783476E-05-9.094947017729E-13 5.940000000000E+04
   -1.543243310547E+04 1.071605682373E-01 2.793967723846E-09 0.000000000000E+00
   -2.011373828125E+04 3.705339431763E-01-0.000000000000E+00 0.000000000000E+00
   -2.545927734375E+03-3.551851272583E+00 0.000000000000E+00 0.000000000000E+00
13 17  9 21 16 45  0.0-2.826564013958E-06-0.000000000000E+00 5.952000000000E+04
   -9.561913574219E+03-2.094475746155E+00-0.000000000000E+00 0.000000000000E+00
    5.367900390625E+03-2.361474037170E+00 1.862645149231E-09-2.000000000000E+00
    2.301854003906E+04-3.205471038818E-01-1.862645149231E-09 0.000000000000E+00
14 17  9 21 16 45  0.0-2.938974648714E-05 2.728484105319E-12 6.051000000000E+04
    2.234044970703E+04 1.173747062683E+00 0.000000000000E+00 4.000000000000E+00
   -8.380399414062E+03-4.221410751343E-01-4.656612873077E-09-5.000000000000E+00
    8.986151367188E+03-3.316395759583E+00-9.313225746155E-10 0.000000000000E+00
